[{"OBJECT_NAME":"JILIN-1 GAOFEN 03D16","OBJECT_ID":"2022-019L","EPOCH":"2026-03-04T17:21:09.391104","MEAN_MOTION":15.83916936,"ECCENTRICITY":0.0003661,"INCLINATION":97.3698,"RA_OF_ASC_NODE":157.906,"ARG_OF_PERICENTER":189.1856,"MEAN_ANOMALY":170.9347,"EPHEMERIS_TYPE":0,"CLASSIFICATION_TYPE":"U","NORAD_CAT_ID":51834,"ELEMENT_SET_NO":999,"REV_AT_EPOCH":22378,"BSTAR":0.0012929,"MEAN_MOTION_DOT":0.00295688,"MEAN_MOTION_DDOT":0},{"OBJECT_NAME":"JILIN-1 GAOFEN 03D11","OBJECT_ID":"2022-019M","EPOCH":"2026-03-04T05:13:09.022656","MEAN_MOTION":15.75108917,"ECCENTRICITY":0.00043336,"INCLINATION":97.3743,"RA_OF_ASC_NODE":156.0972,"ARG_OF_PERICENTER":177.6337,"MEAN_ANOMALY":182.4949,"EPHEMERIS_TYPE":0,"CLASSIFICATION_TYPE":"U","NORAD_CAT_ID":51835,"ELEMENT_SET_NO":999,"REV_AT_EPOCH":22360,"BSTAR":0.0013808702,"MEAN_MOTION_DOT":0.00210324,"MEAN_MOTION_DDOT":0},{"OBJECT_NAME":"JILIN-1 GAOFEN 03D15","OBJECT_ID":"2022-019R","EPOCH":"2026-03-04T19:56:54.042720","MEAN_MOTION":15.6788584,"ECCENTRICITY":0.0004204,"INCLINATION":97.3703,"RA_OF_ASC_NODE":154.8004,"ARG_OF_PERICENTER":181.2631,"MEAN_ANOMALY":178.862,"EPHEMERIS_TYPE":0,"CLASSIFICATION_TYPE":"U","NORAD_CAT_ID":51839,"ELEMENT_SET_NO":999,"REV_AT_EPOCH":22360,"BSTAR":0.0010822,"MEAN_MOTION_DOT":0.00120547,"MEAN_MOTION_DDOT":0},{"OBJECT_NAME":"JILIN-1 GAOFEN 03D10","OBJECT_ID":"2022-019S","EPOCH":"2026-03-04T20:38:08.352960","MEAN_MOTION":15.75312233,"ECCENTRICITY":0.0001663,"INCLINATION":97.3706,"RA_OF_ASC_NODE":156.7779,"ARG_OF_PERICENTER":215.5817,"MEAN_ANOMALY":144.5338,"EPHEMERIS_TYPE":0,"CLASSIFICATION_TYPE":"U","NORAD_CAT_ID":51840,"ELEMENT_SET_NO":999,"REV_AT_EPOCH":22372,"BSTAR":0.0011921,"MEAN_MOTION_DOT":0.00182506,"MEAN_MOTION_DDOT":0},{"OBJECT_NAME":"JILIN-1 GAOFEN 03D12","OBJECT_ID":"2022-019T","EPOCH":"2026-03-04T19:55:28.300224","MEAN_MOTION":15.68205402,"ECCENTRICITY":0.0002904,"INCLINATION":97.3677,"RA_OF_ASC_NODE":154.7099,"ARG_OF_PERICENTER":157.4557,"MEAN_ANOMALY":202.6832,"EPHEMERIS_TYPE":0,"CLASSIFICATION_TYPE":"U","NORAD_CAT_ID":51841,"ELEMENT_SET_NO":999,"REV_AT_EPOCH":22360,"BSTAR":0.0011335,"MEAN_MOTION_DOT":0.00127997,"MEAN_MOTION_DDOT":0},{"OBJECT_NAME":"JILIN-1 GAOFEN 03D18","OBJECT_ID":"2022-019W","EPOCH":"2026-03-04T18:35:43.469952","MEAN_MOTION":15.74786835,"ECCENTRICITY":0.0005466,"INCLINATION":97.3689,"RA_OF_ASC_NODE":155.7711,"ARG_OF_PERICENTER":154.9682,"MEAN_ANOMALY":205.1848,"EPHEMERIS_TYPE":0,"CLASSIFICATION_TYPE":"U","NORAD_CAT_ID":51844,"ELEMENT_SET_NO":999,"REV_AT_EPOCH":22357,"BSTAR":0.0012562,"MEAN_MOTION_DOT":0.00188256,"MEAN_MOTION_DDOT":0},{"OBJECT_NAME":"2022-023F","OBJECT_ID":"2022-023F","EPOCH":"2026-03-04T20:37:23.168352","MEAN_MOTION":15.18162362,"ECCENTRICITY":0.0118615,"INCLINATION":63.4548,"RA_OF_ASC_NODE":268.0959,"ARG_OF_PERICENTER":343.7105,"MEAN_ANOMALY":16.0207,"EPHEMERIS_TYPE":0,"CLASSIFICATION_TYPE":"U","NORAD_CAT_ID":51951,"ELEMENT_SET_NO":999,"REV_AT_EPOCH":22187,"BSTAR":0.00052312,"MEAN_MOTION_DOT":0.000127,"MEAN_MOTION_DDOT":0},{"OBJECT_NAME":"CZ-4C R/B","OBJECT_ID":"2022-027B","EPOCH":"2026-03-04T19:16:35.100192","MEAN_MOTION":13.65471842,"ECCENTRICITY":0.0223278,"INCLINATION":63.3963,"RA_OF_ASC_NODE":336.802,"ARG_OF_PERICENTER":22.986,"MEAN_ANOMALY":338.0981,"EPHEMERIS_TYPE":0,"CLASSIFICATION_TYPE":"U","NORAD_CAT_ID":52085,"ELEMENT_SET_NO":999,"REV_AT_EPOCH":19778,"BSTAR":4.5107e-5,"MEAN_MOTION_DOT":-5.2e-7,"MEAN_MOTION_DDOT":0},{"OBJECT_NAME":"MERIDIAN 10","OBJECT_ID":"2022-030A","EPOCH":"2026-03-03T19:06:14.992704","MEAN_MOTION":2.00610301,"ECCENTRICITY":0.6758383,"INCLINATION":62.6645,"RA_OF_ASC_NODE":152.0476,"ARG_OF_PERICENTER":272.9561,"MEAN_ANOMALY":17.8253,"EPHEMERIS_TYPE":0,"CLASSIFICATION_TYPE":"U","NORAD_CAT_ID":52145,"ELEMENT_SET_NO":999,"REV_AT_EPOCH":2892,"BSTAR":0,"MEAN_MOTION_DOT":2.53e-6,"MEAN_MOTION_DDOT":0},{"OBJECT_NAME":"OMNI-L1","OBJECT_ID":"2022-033A","EPOCH":"2026-03-04T05:27:10.018656","MEAN_MOTION":14.82299003,"ECCENTRICITY":0.00039762,"INCLINATION":97.8448,"RA_OF_ASC_NODE":144.4591,"ARG_OF_PERICENTER":262.8459,"MEAN_ANOMALY":97.2302,"EPHEMERIS_TYPE":0,"CLASSIFICATION_TYPE":"U","NORAD_CAT_ID":52157,"ELEMENT_SET_NO":999,"REV_AT_EPOCH":21190,"BSTAR":0.00046063231,"MEAN_MOTION_DOT":3.63e-5,"MEAN_MOTION_DDOT":0},{"OBJECT_NAME":"ENMAP","OBJECT_ID":"2022-033C","EPOCH":"2026-03-04T19:54:04.781664","MEAN_MOTION":14.74960012,"ECCENTRICITY":0.0001024,"INCLINATION":97.9777,"RA_OF_ASC_NODE":147.5624,"ARG_OF_PERICENTER":86.948,"MEAN_ANOMALY":273.1846,"EPHEMERIS_TYPE":0,"CLASSIFICATION_TYPE":"U","NORAD_CAT_ID":52159,"ELEMENT_SET_NO":999,"REV_AT_EPOCH":21127,"BSTAR":7.402e-5,"MEAN_MOTION_DOT":4.47e-6,"MEAN_MOTION_DDOT":0},{"OBJECT_NAME":"ARCSAT-1","OBJECT_ID":"2022-033E","EPOCH":"2026-03-04T19:41:41.003808","MEAN_MOTION":15.50752785,"ECCENTRICITY":0.0004916,"INCLINATION":97.2744,"RA_OF_ASC_NODE":154.7757,"ARG_OF_PERICENTER":201.3806,"MEAN_ANOMALY":158.7242,"EPHEMERIS_TYPE":0,"CLASSIFICATION_TYPE":"U","NORAD_CAT_ID":52161,"ELEMENT_SET_NO":999,"REV_AT_EPOCH":21951,"BSTAR":0.00029265,"MEAN_MOTION_DOT":0.00016766,"MEAN_MOTION_DDOT":0},{"OBJECT_NAME":"GLOBAL-18","OBJECT_ID":"2022-034B","EPOCH":"2026-03-04T04:59:27.482208","MEAN_MOTION":15.41809638,"ECCENTRICITY":0.00025974,"INCLINATION":52.9833,"RA_OF_ASC_NODE":36.7366,"ARG_OF_PERICENTER":309.7456,"MEAN_ANOMALY":50.3318,"EPHEMERIS_TYPE":0,"CLASSIFICATION_TYPE":"U","NORAD_CAT_ID":52196,"ELEMENT_SET_NO":999,"REV_AT_EPOCH":22074,"BSTAR":0.00083619513,"MEAN_MOTION_DOT":0.00035728,"MEAN_MOTION_DDOT":0},{"OBJECT_NAME":"GAOFEN-3 03","OBJECT_ID":"2022-035A","EPOCH":"2026-03-04T21:14:37.849920","MEAN_MOTION":14.42226329,"ECCENTRICITY":0.0001417,"INCLINATION":98.41,"RA_OF_ASC_NODE":73.961,"ARG_OF_PERICENTER":100.9764,"MEAN_ANOMALY":259.1585,"EPHEMERIS_TYPE":0,"CLASSIFICATION_TYPE":"U","NORAD_CAT_ID":52200,"ELEMENT_SET_NO":999,"REV_AT_EPOCH":20581,"BSTAR":6.5471e-6,"MEAN_MOTION_DOT":-2.2e-7,"MEAN_MOTION_DDOT":0},{"OBJECT_NAME":"DAQI 1","OBJECT_ID":"2022-039A","EPOCH":"2026-03-04T20:59:37.435776","MEAN_MOTION":14.57649509,"ECCENTRICITY":0.000277,"INCLINATION":98.1403,"RA_OF_ASC_NODE":4.9396,"ARG_OF_PERICENTER":197.3972,"MEAN_ANOMALY":162.7133,"EPHEMERIS_TYPE":0,"CLASSIFICATION_TYPE":"U","NORAD_CAT_ID":52257,"ELEMENT_SET_NO":999,"REV_AT_EPOCH":20674,"BSTAR":9.8436e-5,"MEAN_MOTION_DOT":4.04e-6,"MEAN_MOTION_DDOT":0},{"OBJECT_NAME":"JILIN-1 GAOFEN 3D05","OBJECT_ID":"2022-046C","EPOCH":"2026-03-04T18:59:27.050784","MEAN_MOTION":15.7733859,"ECCENTRICITY":0.0003154,"INCLINATION":97.4796,"RA_OF_ASC_NODE":177.7381,"ARG_OF_PERICENTER":236.5659,"MEAN_ANOMALY":123.5305,"EPHEMERIS_TYPE":0,"CLASSIFICATION_TYPE":"U","NORAD_CAT_ID":52390,"ELEMENT_SET_NO":999,"REV_AT_EPOCH":21415,"BSTAR":0.0012289,"MEAN_MOTION_DOT":0.00206155,"MEAN_MOTION_DDOT":0},{"OBJECT_NAME":"BRO-6","OBJECT_ID":"2022-047AE","EPOCH":"2026-03-04T19:48:18.048960","MEAN_MOTION":15.44199689,"ECCENTRICITY":0.000578,"INCLINATION":97.3433,"RA_OF_ASC_NODE":153.3842,"ARG_OF_PERICENTER":92.5391,"MEAN_ANOMALY":267.6519,"EPHEMERIS_TYPE":0,"CLASSIFICATION_TYPE":"U","NORAD_CAT_ID":52422,"ELEMENT_SET_NO":999,"REV_AT_EPOCH":21501,"BSTAR":0.00038193,"MEAN_MOTION_DOT":0.00017463,"MEAN_MOTION_DDOT":0}]
