JILIN-1 GAOFEN 03D16    
1 51834U 22019L   26063.72302536  .00295688  00000+0  12929-2 0  9992
2 51834  97.3698 157.9060 0003661 189.1856 170.9347 15.83916936223781
JILIN-1 GAOFEN 03D11    
1 51835U 22019M   26063.21746554  .00210324  00000+0  13809-2 0  9991
2 51835  97.3743 156.0972 0004333 177.6337 182.4949 15.75108917223608
JILIN-1 GAOFEN 03D15    
1 51839U 22019R   26063.83118105  .00120547  00000+0  10822-2 0  9997
2 51839  97.3703 154.8004 0004204 181.2631 178.8620 15.67885840223608
JILIN-1 GAOFEN 03D10    
1 51840U 22019S   26063.85981890  .00182506  00000+0  11921-2 0  9994
2 51840  97.3706 156.7779 0001663 215.5817 144.5338 15.75312233223725
JILIN-1 GAOFEN 03D12    
1 51841U 22019T   26063.83018866  .00127997  00000+0  11335-2 0  9999
2 51841  97.3677 154.7099 0002904 157.4557 202.6832 15.68205402223603
JILIN-1 GAOFEN 03D18    
1 51844U 22019W   26063.77480868  .00188256  00000+0  12562-2 0  9998
2 51844  97.3689 155.7711 0005466 154.9682 205.1848 15.74786835223570
2022-023F               
1 51951U 22023F   26063.85929593  .00012700  00000+0  52312-3 0  9992
2 51951  63.4548 268.0959 0118615 343.7105  16.0207 15.18162362221878
CZ-4C R/B               
1 52085U 22027B   26063.80318403 -.00000052  00000+0  45107-4 0  9995
2 52085  63.3963 336.8020 0223278  22.9860 338.0981 13.65471842197780
MERIDIAN 10             
1 52145U 22030A   26062.79600686  .00000253  00000+0  00000+0 0  9990
2 52145  62.6645 152.0476 6758383 272.9561  17.8253  2.00610301 28925
OMNI-L1                 
1 52157U 22033A   26063.22719929  .00003630  00000+0  46063-3 0  9991
2 52157  97.8448 144.4591 0003976 262.8459  97.2302 14.82299003211905
ENMAP                   
1 52159U 22033C   26063.82922201  .00000447  00000+0  74020-4 0  9996
2 52159  97.9777 147.5624 0001024  86.9480 273.1846 14.74960012211279
ARCSAT-1                
1 52161U 22033E   26063.82061347  .00016766  00000+0  29265-3 0  9995
2 52161  97.2744 154.7757 0004916 201.3806 158.7242 15.50752785219518
GLOBAL-18               
1 52196U 22034B   26063.20795697  .00035728  00000+0  83620-3 0  9992
2 52196  52.9833  36.7366 0002597 309.7456  50.3318 15.41809638220743
GAOFEN-3 03             
1 52200U 22035A   26063.88516030 -.00000022  00000+0  65471-5 0  9991
2 52200  98.4100  73.9610 0001417 100.9764 259.1585 14.42226329205815
DAQI 1                  
1 52257U 22039A   26063.87473884  .00000404  00000+0  98436-4 0  9994
2 52257  98.1403   4.9396 0002770 197.3972 162.7133 14.57649509206745
JILIN-1 GAOFEN 3D05     
1 52390U 22046C   26063.79128531  .00206155  00000+0  12289-2 0  9998
2 52390  97.4796 177.7381 0003154 236.5659 123.5305 15.77338590214156
BRO-6                   
1 52422U 22047AE  26063.82520890  .00017463  00000+0  38193-3 0  9998
2 52422  97.3433 153.3842 0005780  92.5391 267.6519 15.44199689215012
